#aP2019 08 26 16 00 00.00000000    9600 ORBIT IGS14 HLM  IGS
## 2068 144000.00000000   300.00000000 58721 0.6633101851852
+   56   G01G02G03G04G05G06G07G08G09G10G11G12G13G14G15G16G17
+        G18G19G20G21G22G23G24G25G26G27G28G29G30G31G32R01R02
+        R03R04R05R06R07R08R09R10R11R12R13R14R15R16R17R18R19
+        R20R21R22R23R24  0  0  0  0  0  0  0  0  0  0  0  0
+          0  0  0  0  0  0  0  0  0  0  0  0  0  0  0  0  0
++         0  0  0  0  0  0  0  0  0  0  0  0  0  0  0  0  0
++         0  0  0  0  0  0  0  0  0  0  0  0  0  0  0  0  0
++         0  0  0  0  0  0  0  0  0  0  0  0  0  0  0  0  0
++         0  0  0  0  0  0  0  0  0  0  0  0  0  0  0  0  0
++         0  0  0  0  0  0  0  0  0  0  0  0  0  0  0  0  0
%c G  cc GPS ccc cccc cccc cccc cccc ccccc ccccc ccccc ccccc
%c cc cc ccc ccc cccc cccc cccc cccc ccccc ccccc ccccc ccccc
%f  0.0000000  0.000000000  0.00000000000  0.000000000000000
%f  0.0000000  0.000000000  0.00000000000  0.000000000000000
%i    0    0    0    0      0      0      0      0         0
%i    0    0    0    0      0      0      0      0         0
/*                                                          
/*                                                          
/*                                                          
/*                                                          
*  2019 08 26 17 00 00.00000000
PG01  20430.383281  14250.582744  -9864.304500   -108.723258
PG02  -1044.503215 -16171.535228  21677.483598   -291.453555
PG03  13108.958624  18835.129274  13400.398940     -4.896897
PG05  -2096.737262 -25865.800937   4992.934401     -0.906159
PG06  15372.450421  -8891.574435  19798.977409    -37.229349
PG07  25727.640375   5959.656711  -4400.535486    -93.267534
PG08   5121.000787  14962.342524 -21271.669879     -4.170804
PG09  20646.215843  -2790.667710  16434.915075    -15.845347
PG10 -12602.995565  10573.229255 -20745.759222    -29.066156
PG11  17683.054765  11052.701481 -16819.354240   -524.585782
PG12  -9884.270108 -22248.186681  10595.375200    210.247883
PG13   6097.919233 -18839.351957 -17782.505065    -47.672735
PG14 -17336.351945  18862.892003   6961.836392    -64.590889
PG15  -7729.156907 -14666.833825 -20971.482587   -291.431532
PG16  -1171.475008  25626.895674   5742.747256    -68.445317
PG17  21347.979423 -15645.295321  -1131.899146    113.907312
PG18  13225.063535  16255.444700 -16889.252296     80.912051
PG19  19588.149699 -17362.014573   4320.427205   -275.710841
PG20 -16302.187772    545.343175 -21085.570717    526.625811
PG21 -24986.795603  -1103.976431  -7868.311679   -129.633192
PG22  11480.099418  23130.290101   6645.535945   -748.217001
PG23  13638.039709   8653.272569  21472.213598   -170.201669
PG24 -18924.176076 -14621.990462 -12069.106449     -1.312595
PG25 -15313.884042  -9784.029901  19246.154060     -9.363120
PG26  -6281.938750  20933.788616  14947.179307     24.311061
PG27  -7762.433064  20308.444696 -15157.913714    -35.885408
PG28  12664.244516 -10286.112415 -20379.777471    763.841480
PG29 -19118.148319   -780.277843  18395.445221    114.631700
PG30  22274.271328  -2552.778841 -14359.847226    -27.658041
PG31 -14249.898844   9820.120423  20259.721998     14.678187
PG32 -20754.698731  16320.039181  -2113.518162     33.853835
PR01   7762.851784 -24268.195447   1015.160181     48.745328
PR02  -3009.548102 -18068.678364 -17739.391912    385.116142
PR03 -11086.273670  -1132.544892 -22902.752082      0.633084
PR07  11289.139774    492.780198  22905.588037    -25.659658
PR09  16717.820569  19276.630498   1295.377445     87.401173
PR11  10591.992150  -4662.722951 -22715.582711    -77.297593
PR12  -3132.756517 -16705.181253 -18993.232082     56.126253
PR13 -15868.101351 -19613.082624  -3738.547456    -27.611873
PR14 -18700.231878 -11099.425353  13333.553455     42.326509
PR15 -11039.258259   3824.721103  22701.267459    103.691564
PR16   3382.465523  16785.035050  18846.565512      5.504922
PR17 -23148.718805    -58.525757  10766.336171    255.110190
PR18 -23440.106858   7857.694404  -6172.824324      5.206948
PR19 -11591.838798  11228.755735 -19762.270075    -50.439177
PR20   9275.838401   8380.969178 -22239.869274   -388.592795
PR21  23388.230905   -306.010802 -10143.011562    -68.443967
PR22  22291.694949  -8765.048650   8934.657508    -34.857529
PR23   5491.244276 -11352.763272  22158.200242    249.812076
PR24 -11385.741606  -7515.289108  21520.683892   -184.073323
*  2019 08 26 17 05 00.00000000
PG01  20054.141263  14178.849438 -10711.133500   -108.726748
PG02   -281.096441 -15983.516286  21840.376164   -291.455837
PG03  13145.694229  19335.193999  12636.014508     -4.897854
PG05  -1953.610454 -25679.208529   5911.869500     -0.906073
PG06  16067.049891  -8629.243529  19358.662787    -37.232917
PG07  25851.630720   6085.308666  -3477.168239    -93.269939
PG08   4509.302914  15491.341503 -21024.418291     -4.171261
PG09  20213.172521  -2314.889697  17034.377146    -15.848058
PG10 -12791.461281   9794.376568 -21016.370181    -29.070494
PG11  17068.375464  11212.622842 -17365.550579   -524.582788
PG12  -9882.354407 -22646.471507   9740.741982    210.246782
PG13   6668.599263 -19174.492727 -17204.714148    -47.672239
PG14 -17575.628394  18938.376581   6049.443563    -64.590443
PG15  -7175.248648 -15219.764232 -20758.822054   -291.430607
PG16  -1272.355649  25390.558281   6678.296510    -68.446468
PG17  21328.379290 -15546.756903  -2098.982808    113.909270
PG18  12609.441201  16136.729104 -17478.245381     80.912787
PG19  19752.816298 -17402.824938   3369.391654   -275.709268
PG20 -16539.534901   -214.160557 -20910.199058    526.625808
PG21 -25267.169412  -1281.206670  -6978.772364   -129.631482
PG22  11440.066406  23379.187422   5756.890125   -748.218345
PG23  13058.250089   9200.336553  21595.248602   -170.200850
PG24 -18455.506520 -14574.651014 -12828.004808     -1.312835
PG25 -15425.096399 -10511.032609  18780.817579     -9.363648
PG26  -6483.947456  20379.054933  15617.256800     24.313795
PG27  -8217.230556  20640.499946 -14438.837585    -35.888896
PG28  12778.252196  -9471.944972 -20688.887175    763.841373
PG29 -18576.763186  -1242.149094  18915.690777    114.628715
PG30  22747.452550  -2293.108750 -13651.820325    -27.660375
PG31 -14956.485577   9534.122793  19896.973536     14.677245
PG32 -20740.574977  16184.484721  -3059.082014     33.858131
PR01   7705.073815 -24218.654766   2080.977081     48.745269
PR02  -2830.630741 -18763.160416 -17036.956733    385.116307
PR03 -10807.881131  -2036.367939 -22974.298903      0.632781
PR07  11009.382464   1390.221991  23003.770780    -25.660311
PR09  16696.424583  19195.332263   2356.221983     87.401251
PR11  11232.250853  -3987.156092 -22537.593297    -77.298389
PR12  -2610.772763 -16105.268226 -19579.804477     56.126972
PR13 -15783.478155 -19452.165112  -4792.236192    -27.612369
PR14 -19088.335394 -11460.631776  12446.807221     42.326312
PR15 -11676.717836   3152.883524  22484.124809    103.691149
PR16   2850.307929  16202.695653  19437.523707      5.504226
PR17 -22686.043995   -105.198351  11708.544255    255.110817
PR18 -23653.054085   7972.894565  -5123.929073      5.207287
PR19 -12368.474241  11426.884608 -19169.123189    -50.440088
PR20   8368.734516   8542.168509 -22535.336036   -388.593708
PR21  22948.777430   -267.866779 -11103.736027    -68.444971
PR22  22614.818462  -8906.665873   7929.181165    -34.858324
PR23   6370.359577 -11570.964623  21807.330184    249.812868
PR24 -10505.624442  -7684.101182  21904.920160   -184.073881
